QIANFAN-81              
1 63167U 25046J   25239.54063978  .00000193  00000+0  28049-3 0  9991
2 63167  88.9862 330.9321 0016448  75.7955 284.5022 13.50967871 33015
QIANFAN-82              
1 63168U 25046K   25239.57347298  .00000189  00000+0  27347-3 0  9990
2 63168  88.9862 330.9722 0014758  83.2858 276.9973 13.50964875 33009
QIANFAN-83              
1 63169U 25046L   25239.58304274  .00000218  00000+0  26697-3 0  9999
2 63169  88.9862 330.9576 0015892  74.9775 285.3140 13.61940843 33014
QIANFAN-84              
1 63170U 25046M   25239.52814597  .00000160  00000+0  22885-3 0  9990
2 63170  88.9863 331.1099 0017649  79.3635 280.9502 13.50971305 32923
QIANFAN-85              
1 63171U 25046N   25239.52419877  .00000186  00000+0  26908-3 0  9991
2 63171  88.9862 330.9825 0015088  82.3589 277.9276 13.50965804 32992
QIANFAN-86              
1 63172U 25046P   25239.53241869  .00000186  00000+0  26981-3 0  9998
2 63172  88.9864 330.8414 0013045  86.7849 273.4795 13.50966326 33073
QIANFAN-87              
1 63173U 25046Q   25239.57762524  .00000191  00000+0  27715-3 0  9991
2 63173  88.9860 330.9524 0013661  82.0130 278.2571 13.50963030 33017
QIANFAN-88              
1 63174U 25046R   25239.52009254  .00000188  00000+0  27256-3 0  9997
2 63174  88.9863 330.9102 0014177  88.9341 271.3435 13.50970282 33037
